start=new Date('2023-01-02T00:00:00.000Z').valueOf();
sats=[{"SEMIMAJOR_AXIS":"6925.414","EPHEMERIS_TYPE":"0","PERIAPSIS":"546.282","PERIOD":"95.594","MEAN_ELEMENT_THEORY":"SGP4","MEAN_MOTION_DOT":"-0.00001314","ELEMENT_SET_NO":"999","CLASSIFICATION_TYPE":"U","NORAD_CAT_ID":"45376","CENTER_NAME":"EARTH","RCS_SIZE":"LARGE","REF_FRAME":"TEME","ARG_OF_PERICENTER":"62.5007","MEAN_MOTION":"15.06378509","APOAPSIS":"548.277","FILE":"3729044","ECCENTRICITY":"0.00014400","OBJECT_ID":"2020-019S","REV_AT_EPOCH":"15449","COUNTRY_CODE":"US","MEAN_ANOMALY":"297.6128","OBJECT_TYPE":"PAYLOAD","GP_ID":"221995456","TLE_LINE1":"1 45376U 20019S   23002.06571117 -.00001314  00000-0 -69402-4 0  9998","SITE":"AFETR","DECAY_DATE":null,"BSTAR":"-0.00006940200000","MEAN_MOTION_DDOT":"0.0000000000000","EPOCH":"2023-01-02T01:34:37.445088","TIME_SYSTEM":"UTC","INCLINATION":"53.0573","OBJECT_NAME":"STARLINK-1304","RA_OF_ASC_NODE":"345.8354","LAUNCH_DATE":"2020-03-18","TLE_LINE2":"2 45376  53.0573 345.8354 0001440  62.5007 297.6128 15.06378509154493"},{"TLE_LINE2":"2 45377  53.0570 347.5040 0002058  44.4993 315.6161 15.06399930154445","LAUNCH_DATE":"2020-03-18","OBJECT_NAME":"STARLINK-1305","RA_OF_ASC_NODE":"347.5040","INCLINATION":"53.0570","TIME_SYSTEM":"UTC","MEAN_MOTION_DDOT":"0.0000000000000","EPOCH":"2023-01-01T16:38:30.865056","SITE":"AFETR","TLE_LINE1":"1 45377U 20019T   23001.69341279 -.00000146  00000-0  91285-5 0  9997","DECAY_DATE":null,"BSTAR":"0.00000912850000","MEAN_ANOMALY":"315.6161","OBJECT_TYPE":"PAYLOAD","GP_ID":"221986039","COUNTRY_CODE":"US","REV_AT_EPOCH":"15444","ECCENTRICITY":"0.00020580","OBJECT_ID":"2020-019T","APOAPSIS":"548.639","FILE":"3728952","ARG_OF_PERICENTER":"44.4993","MEAN_MOTION":"15.06399930","REF_FRAME":"TEME","RCS_SIZE":"LARGE","NORAD_CAT_ID":"45377","CENTER_NAME":"EARTH","CLASSIFICATION_TYPE":"U","ELEMENT_SET_NO":"999","MEAN_ELEMENT_THEORY":"SGP4","MEAN_MOTION_DOT":"-0.00000146","PERIOD":"95.592","PERIAPSIS":"545.789","EPHEMERIS_TYPE":"0","SEMIMAJOR_AXIS":"6925.349"},{"MEAN_MOTION_DDOT":"0.0000000000000","EPOCH":"2023-01-01T22:44:46.089024","TLE_LINE1":"1 45378U 20019U   23001.94775566 -.00000544  00000-0 -17574-4 0  9997","DECAY_DATE":null,"SITE":"AFETR","BSTAR":"-0.00001757400000","MEAN_ANOMALY":"318.3498","GP_ID":"221995461","OBJECT_TYPE":"PAYLOAD","COUNTRY_CODE":"US","REV_AT_EPOCH":"15448","ECCENTRICITY":"0.00026590","OBJECT_ID":"2020-019U","TLE_LINE2":"2 45378  53.0565 346.3736 0002659  41.7694 318.3498 15.06389632154489","LAUNCH_DATE":"2020-03-18","OBJECT_NAME":"STARLINK-1310","RA_OF_ASC_NODE":"346.3736","INCLINATION":"53.0565","TIME_SYSTEM":"UTC","CENTER_NAME":"EARTH","NORAD_CAT_ID":"45378","CLASSIFICATION_TYPE":"U","ELEMENT_SET_NO":"999","MEAN_ELEMENT_THEORY":"SGP4","MEAN_MOTION_DOT":"-0.00000544","PERIOD":"95.593","PERIAPSIS":"545.404","EPHEMERIS_TYPE":"0","SEMIMAJOR_AXIS":"6925.380","APOAPSIS":"549.087","FILE":"3729044","ARG_OF_PERICENTER":"41.7694","MEAN_MOTION":"15.06389632","REF_FRAME":"TEME","RCS_SIZE":"LARGE"},{"PERIAPSIS":"546.008","EPHEMERIS_TYPE":"0","PERIOD":"95.593","SEMIMAJOR_AXIS":"6925.390","CLASSIFICATION_TYPE":"U","CENTER_NAME":"EARTH","NORAD_CAT_ID":"45379","MEAN_ELEMENT_THEORY":"SGP4","MEAN_MOTION_DOT":"-0.00001922","ELEMENT_SET_NO":"999","REF_FRAME":"TEME","RCS_SIZE":"LARGE","ARG_OF_PERICENTER":"58.4111","MEAN_MOTION":"15.06386596","APOAPSIS":"548.501","FILE":"3728952","COUNTRY_CODE":"US","MEAN_ANOMALY":"301.7054","OBJECT_TYPE":"PAYLOAD","GP_ID":"221987040","ECCENTRICITY":"0.00018000","OBJECT_ID":"2020-019V","REV_AT_EPOCH":"15444","MEAN_MOTION_DDOT":"0.0000000000000","EPOCH":"2023-01-01T16:27:54.787392","TLE_LINE1":"1 45379U 20019V   23001.68605078 -.00001922  00000-0 -11020-3 0  9999","DECAY_DATE":null,"BSTAR":"-0.00011020000000","SITE":"AFETR","INCLINATION":"53.0560","OBJECT_NAME":"STARLINK-1319","RA_OF_ASC_NODE":"347.5454","TIME_SYSTEM":"UTC","TLE_LINE2":"2 45379  53.0560 347.5454 0001800  58.4111 301.7054 15.06386596154447","LAUNCH_DATE":"2020-03-18"},{"SEMIMAJOR_AXIS":"6925.392","PERIOD":"95.593","EPHEMERIS_TYPE":"0","PERIAPSIS":"545.790","ELEMENT_SET_NO":"999","MEAN_ELEMENT_THEORY":"SGP4","MEAN_MOTION_DOT":"-0.00003013","CENTER_NAME":"EARTH","NORAD_CAT_ID":"45380","CLASSIFICATION_TYPE":"U","RCS_SIZE":"LARGE","REF_FRAME":"TEME","APOAPSIS":"548.725","FILE":"3728952","ARG_OF_PERICENTER":"43.1845","MEAN_MOTION":"15.06385787","REV_AT_EPOCH":"15470","ECCENTRICITY":"0.00021190","OBJECT_ID":"2020-019W","MEAN_ANOMALY":"316.9310","OBJECT_TYPE":"PAYLOAD","GP_ID":"221987290","COUNTRY_CODE":"US","TLE_LINE1":"1 45380U 20019W   23001.61786750 -.00003013  00000-0 -18353-3 0  9990","DECAY_DATE":null,"SITE":"AFETR","BSTAR":"-0.00018353000000","MEAN_MOTION_DDOT":"0.0000000000000","EPOCH":"2023-01-01T14:49:43.752000","TIME_SYSTEM":"UTC","OBJECT_NAME":"STARLINK-1207","RA_OF_ASC_NODE":"327.8562","INCLINATION":"53.0554","LAUNCH_DATE":"2020-03-18","TLE_LINE2":"2 45380  53.0554 327.8562 0002119  43.1845 316.9310 15.06385787154705"},{"TIME_SYSTEM":"UTC","INCLINATION":"53.0543","OBJECT_NAME":"STARLINK-1258","RA_OF_ASC_NODE":"327.8135","LAUNCH_DATE":"2020-03-18","TLE_LINE2":"2 45381  53.0543 327.8135 0001685  59.7571 300.3585 15.06382302154707","ECCENTRICITY":"0.00016850","OBJECT_ID":"2020-019X","REV_AT_EPOCH":"15470","COUNTRY_CODE":"US","MEAN_ANOMALY":"300.3585","OBJECT_TYPE":"PAYLOAD","GP_ID":"221995201","DECAY_DATE":null,"TLE_LINE1":"1 45381U 20019X   23001.62890796 -.00002223  00000-0 -13044-3 0  9992","BSTAR":"-0.00013044000000","SITE":"AFETR","MEAN_MOTION_DDOT":"0.0000000000000","EPOCH":"2023-01-01T15:05:37.647744","RCS_SIZE":"LARGE","REF_FRAME":"TEME","ARG_OF_PERICENTER":"59.7571","MEAN_MOTION":"15.06382302","APOAPSIS":"548.435","FILE":"3729037","SEMIMAJOR_AXIS":"6925.403","EPHEMERIS_TYPE":"0","PERIAPSIS":"546.101","PERIOD":"95.593","MEAN_ELEMENT_THEORY":"SGP4","MEAN_MOTION_DOT":"-0.00002223","ELEMENT_SET_NO":"999","CLASSIFICATION_TYPE":"U","NORAD_CAT_ID":"45381","CENTER_NAME":"EARTH"},{"SEMIMAJOR_AXIS":"6911.659","EPHEMERIS_TYPE":"0","PERIAPSIS":"532.126","PERIOD":"95.309","MEAN_ELEMENT_THEORY":"SGP4","MEAN_MOTION_DOT":"0.00024503","ELEMENT_SET_NO":"999","CLASSIFICATION_TYPE":"U","CENTER_NAME":"EARTH","NORAD_CAT_ID":"45382","RCS_SIZE":"LARGE","REF_FRAME":"TEME","ARG_OF_PERICENTER":"52.6796","MEAN_MOTION":"15.10877538","APOAPSIS":"534.923","FILE":"3728759","ECCENTRICITY":"0.00020240","OBJECT_ID":"2020-019Y","REV_AT_EPOCH":"15454","COUNTRY_CODE":"US","MEAN_ANOMALY":"307.4379","OBJECT_TYPE":"PAYLOAD","GP_ID":"221928431","TLE_LINE1":"1 45382U 20019Y   23001.58440621  .00024503  00000-0  14679-2 0  9993","DECAY_DATE":null,"BSTAR":"0.00146790000000","SITE":"AFETR","MEAN_MOTION_DDOT":"0.0000000000000","EPOCH":"2023-01-01T14:01:32.696544","TIME_SYSTEM":"UTC","INCLINATION":"53.0526","OBJECT_NAME":"STARLINK-1264","RA_OF_ASC_NODE":"326.3464","LAUNCH_DATE":"2020-03-18","TLE_LINE2":"2 45382  53.0526 326.3464 0002024  52.6796 307.4379 15.10877538154543"},{"EPHEMERIS_TYPE":"0","PERIAPSIS":"545.876","PERIOD":"95.593","SEMIMAJOR_AXIS":"6925.405","CLASSIFICATION_TYPE":"U","NORAD_CAT_ID":"45383","CENTER_NAME":"EARTH","MEAN_ELEMENT_THEORY":"SGP4","MEAN_MOTION_DOT":"0.00004115","ELEMENT_SET_NO":"999","REF_FRAME":"TEME","RCS_SIZE":"LARGE","ARG_OF_PERICENTER":"44.5617","MEAN_MOTION":"15.06381586","APOAPSIS":"548.664","FILE":"3728759","COUNTRY_CODE":"US","MEAN_ANOMALY":"315.5534","OBJECT_TYPE":"PAYLOAD","GP_ID":"221928681","ECCENTRICITY":"0.00020130","OBJECT_ID":"2020-019Z","REV_AT_EPOCH":"15466","MEAN_MOTION_DDOT":"0.0000000000000","EPOCH":"2023-01-01T08:32:51.704736","TLE_LINE1":"1 45383U 20019Z   23001.35615399  .00004115  00000-0  29513-3 0  9996","DECAY_DATE":null,"BSTAR":"0.00029513000000","SITE":"AFETR","INCLINATION":"53.0543","OBJECT_NAME":"STARLINK-1266","RA_OF_ASC_NODE":"329.0381","TIME_SYSTEM":"UTC","TLE_LINE2":"2 45383  53.0543 329.0381 0002013  44.5617 315.5534 15.06381586154665","LAUNCH_DATE":"2020-03-18"},{"RCS_SIZE":"LARGE","REF_FRAME":"TEME","APOAPSIS":"548.702","FILE":"3729039","ARG_OF_PERICENTER":"48.3116","MEAN_MOTION":"15.06384390","SEMIMAJOR_AXIS":"6925.396","PERIOD":"95.593","PERIAPSIS":"545.821","EPHEMERIS_TYPE":"0","ELEMENT_SET_NO":"999","MEAN_ELEMENT_THEORY":"SGP4","MEAN_MOTION_DOT":"-0.00003238","NORAD_CAT_ID":"45384","CENTER_NAME":"EARTH","CLASSIFICATION_TYPE":"U","TIME_SYSTEM":"UTC","OBJECT_NAME":"STARLINK-1267","RA_OF_ASC_NODE":"326.1022","INCLINATION":"53.0564","LAUNCH_DATE":"2020-03-18","TLE_LINE2":"2 45384  53.0564 326.1022 0002080  48.3116 311.8051 15.06384390154769","REV_AT_EPOCH":"15476","ECCENTRICITY":"0.00020800","OBJECT_ID":"2020-019AA","MEAN_ANOMALY":"311.8051","GP_ID":"221995383","OBJECT_TYPE":"PAYLOAD","COUNTRY_CODE":"US","BSTAR":"-0.00019867000000","TLE_LINE1":"1 45384U 20019AA  23002.00763648 -.00003238  00000-0 -19867-3 0  9999","DECAY_DATE":null,"SITE":"AFETR","MEAN_MOTION_DDOT":"0.0000000000000","EPOCH":"2023-01-02T00:10:59.791872"},{"CENTER_NAME":"EARTH","NORAD_CAT_ID":"45386","CLASSIFICATION_TYPE":"U","ELEMENT_SET_NO":"999","MEAN_ELEMENT_THEORY":"SGP4","MEAN_MOTION_DOT":"-0.00002350","PERIOD":"95.593","EPHEMERIS_TYPE":"0","PERIAPSIS":"546.292","SEMIMAJOR_AXIS":"6925.386","APOAPSIS":"548.210","FILE":"3728952","ARG_OF_PERICENTER":"91.8653","MEAN_MOTION":"15.06387850","REF_FRAME":"TEME","RCS_SIZE":"LARGE","MEAN_MOTION_DDOT":"0.0000000000000","EPOCH":"2023-01-01T14:44:25.152864","TLE_LINE1":"1 45386U 20019AC  23001.61418001 -.00002350  00000-0 -13894-3 0  9995","DECAY_DATE":null,"SITE":"AFETR","BSTAR":"-0.00013894000000","MEAN_ANOMALY":"268.2495","GP_ID":"221986040","OBJECT_TYPE":"PAYLOAD","COUNTRY_CODE":"US","REV_AT_EPOCH":"15470","ECCENTRICITY":"0.00013850","OBJECT_ID":"2020-019AC","TLE_LINE2":"2 45386  53.0551 327.8666 0001385  91.8653 268.2495 15.06387850154700","LAUNCH_DATE":"2020-03-18","OBJECT_NAME":"STARLINK-1272","RA_OF_ASC_NODE":"327.8666","INCLINATION":"53.0551","TIME_SYSTEM":"UTC"}];
